MALLIGYONG-1            
1 58400U 23179A   24225.54527913  .00023501  00000+0  10308-2 0  9994
2 58400  97.3953 111.4405 0002364  52.3885 307.7565 15.21968340 40294
